start=new Date('2022-04-05T00:00:00.000Z').valueOf();
sats=[{"NORAD_CAT_ID":"48436","FILE":"3387897","ARG_OF_PERICENTER":"59.3391","MEAN_MOTION":"15.06392996","TIME_SYSTEM":"UTC","BSTAR":"0.00129060000000","EPOCH":"2022-04-04T09:50:13.099776","OBJECT_ID":"2021-040J","CLASSIFICATION_TYPE":"U","ELEMENT_SET_NO":"999","INCLINATION":"53.0525","MEAN_ANOMALY":"300.7749","TLE_LINE1":"1 48436U 21040J   22094.40987384  .00018991  00000-0  12906-2 0  9990","GP_ID":"200425631","COUNTRY_CODE":"US","TLE_LINE2":"2 48436  53.0525 144.8339 0001539  59.3391 300.7749 15.06392996 50293","CENTER_NAME":"EARTH","RCS_SIZE":"LARGE","OBJECT_TYPE":"PAYLOAD","PERIAPSIS":"546.169","OBJECT_NAME":"STARLINK-2639","APOAPSIS":"548.301","MEAN_ELEMENT_THEORY":"SGP4","MEAN_MOTION_DDOT":"0.0000000000000","EPHEMERIS_TYPE":"0","SITE":"AFETR","LAUNCH_DATE":"2021-05-09","REV_AT_EPOCH":"5029","RA_OF_ASC_NODE":"144.8339","ECCENTRICITY":"0.00015390","REF_FRAME":"TEME","MEAN_MOTION_DOT":"0.00018991","PERIOD":"95.593","DECAY_DATE":null,"SEMIMAJOR_AXIS":"6925.370"},{"DECAY_DATE":null,"SEMIMAJOR_AXIS":"6925.404","MEAN_MOTION_DOT":"0.00021503","PERIOD":"95.593","REF_FRAME":"TEME","REV_AT_EPOCH":"5017","RA_OF_ASC_NODE":"154.3151","ECCENTRICITY":"0.00015040","LAUNCH_DATE":"2021-05-09","EPHEMERIS_TYPE":"0","SITE":"AFETR","MEAN_MOTION_DDOT":"0.0000000000000","MEAN_ELEMENT_THEORY":"SGP4","APOAPSIS":"548.311","OBJECT_NAME":"STARLINK-2642","PERIAPSIS":"546.228","OBJECT_TYPE":"PAYLOAD","CENTER_NAME":"EARTH","RCS_SIZE":"LARGE","TLE_LINE1":"1 48437U 21040K   22094.52691030  .00021503  00000-0  14588-2 0  9995","GP_ID":"200425377","COUNTRY_CODE":"US","TLE_LINE2":"2 48437  53.0501 154.3151 0001504  42.3590 317.7515 15.06381788 50174","MEAN_ANOMALY":"317.7515","INCLINATION":"53.0501","CLASSIFICATION_TYPE":"U","ELEMENT_SET_NO":"999","EPOCH":"2022-04-04T12:38:45.049920","OBJECT_ID":"2021-040K","BSTAR":"0.00145880000000","TIME_SYSTEM":"UTC","MEAN_MOTION":"15.06381788","ARG_OF_PERICENTER":"42.3590","FILE":"3387897","NORAD_CAT_ID":"48437"},{"TLE_LINE1":"1 48438U 21040L   22094.87058925  .00002601  00000-0  19347-3 0  9991","GP_ID":"200436586","COUNTRY_CODE":"US","TLE_LINE2":"2 48438  53.0524 142.7755 0001801  39.2948 320.8171 15.06400677 51648","BSTAR":"0.00019347000000","EPOCH":"2022-04-04T20:53:38.911200","OBJECT_ID":"2021-040L","CLASSIFICATION_TYPE":"U","ELEMENT_SET_NO":"999","MEAN_ANOMALY":"320.8171","INCLINATION":"53.0524","MEAN_MOTION":"15.06400677","TIME_SYSTEM":"UTC","NORAD_CAT_ID":"48438","FILE":"3388319","ARG_OF_PERICENTER":"39.2948","REF_FRAME":"TEME","MEAN_MOTION_DOT":"0.00002601","PERIOD":"95.592","DECAY_DATE":null,"SEMIMAJOR_AXIS":"6925.346","MEAN_MOTION_DDOT":"0.0000000000000","SITE":"AFETR","EPHEMERIS_TYPE":"0","LAUNCH_DATE":"2021-05-09","REV_AT_EPOCH":"5164","RA_OF_ASC_NODE":"142.7755","ECCENTRICITY":"0.00018010","APOAPSIS":"548.459","MEAN_ELEMENT_THEORY":"SGP4","CENTER_NAME":"EARTH","RCS_SIZE":"LARGE","OBJECT_TYPE":"PAYLOAD","PERIAPSIS":"545.964","OBJECT_NAME":"STARLINK-2640"},{"MEAN_MOTION":"15.06397211","TIME_SYSTEM":"UTC","FILE":"3387897","NORAD_CAT_ID":"48439","ARG_OF_PERICENTER":"56.3887","TLE_LINE1":"1 48439U 21040M   22094.40247901  .00002581  00000-0  19209-3 0  9999","GP_ID":"200424881","COUNTRY_CODE":"US","TLE_LINE2":"2 48439  53.0551 144.8831 0001591  56.3887 303.7254 15.06397211 50296","EPOCH":"2022-04-04T09:39:34.186464","OBJECT_ID":"2021-040M","BSTAR":"0.00019209000000","INCLINATION":"53.0551","MEAN_ANOMALY":"303.7254","CLASSIFICATION_TYPE":"U","ELEMENT_SET_NO":"999","APOAPSIS":"548.324","MEAN_ELEMENT_THEORY":"SGP4","OBJECT_TYPE":"PAYLOAD","CENTER_NAME":"EARTH","RCS_SIZE":"LARGE","OBJECT_NAME":"STARLINK-2583","PERIAPSIS":"546.120","REF_FRAME":"TEME","SEMIMAJOR_AXIS":"6925.357","DECAY_DATE":null,"MEAN_MOTION_DOT":"0.00002581","PERIOD":"95.592","SITE":"AFETR","EPHEMERIS_TYPE":"0","MEAN_MOTION_DDOT":"0.0000000000000","REV_AT_EPOCH":"5029","RA_OF_ASC_NODE":"144.8831","ECCENTRICITY":"0.00015910","LAUNCH_DATE":"2021-05-09"},{"MEAN_ELEMENT_THEORY":"SGP4","APOAPSIS":"548.361","OBJECT_NAME":"STARLINK-2682","PERIAPSIS":"546.215","OBJECT_TYPE":"PAYLOAD","CENTER_NAME":"EARTH","RCS_SIZE":"LARGE","SEMIMAJOR_AXIS":"6925.423","DECAY_DATE":null,"MEAN_MOTION_DOT":"0.00002393","PERIOD":"95.594","REF_FRAME":"TEME","REV_AT_EPOCH":"5074","RA_OF_ASC_NODE":"144.8995","ECCENTRICITY":"0.00015490","LAUNCH_DATE":"2021-05-09","SITE":"AFETR","EPHEMERIS_TYPE":"0","MEAN_MOTION_DDOT":"0.0000000000000","TIME_SYSTEM":"UTC","MEAN_MOTION":"15.06375780","ARG_OF_PERICENTER":"47.2014","FILE":"3387969","NORAD_CAT_ID":"48440","GP_ID":"200429197","TLE_LINE1":"1 48440U 21040N   22094.39882277  .00002393  00000-0  17963-3 0  9996","COUNTRY_CODE":"US","TLE_LINE2":"2 48440  53.0531 144.8995 0001549  47.2014 312.9105 15.06375780 50745","MEAN_ANOMALY":"312.9105","INCLINATION":"53.0531","CLASSIFICATION_TYPE":"U","ELEMENT_SET_NO":"999","EPOCH":"2022-04-04T09:34:18.287328","OBJECT_ID":"2021-040N","BSTAR":"0.00017963000000"},{"BSTAR":"0.00009887700000","EPOCH":"2022-04-04T11:04:32.162304","OBJECT_ID":"2021-040P","ELEMENT_SET_NO":"999","CLASSIFICATION_TYPE":"U","MEAN_ANOMALY":"298.9916","INCLINATION":"53.0549","GP_ID":"200425877","TLE_LINE1":"1 48441U 21040P   22094.46148336  .00001191  00000-0  98877-4 0  9995","COUNTRY_CODE":"US","TLE_LINE2":"2 48441  53.0549 144.6197 0001597  61.1233 298.9916 15.06372496 50304","NORAD_CAT_ID":"48441","FILE":"3387897","ARG_OF_PERICENTER":"61.1233","MEAN_MOTION":"15.06372496","TIME_SYSTEM":"UTC","MEAN_MOTION_DDOT":"0.0000000000000","EPHEMERIS_TYPE":"0","SITE":"AFETR","LAUNCH_DATE":"2021-05-09","REV_AT_EPOCH":"5030","ECCENTRICITY":"0.00015970","RA_OF_ASC_NODE":"144.6197","REF_FRAME":"TEME","MEAN_MOTION_DOT":"0.00001191","PERIOD":"95.594","SEMIMAJOR_AXIS":"6925.433","DECAY_DATE":null,"CENTER_NAME":"EARTH","RCS_SIZE":"LARGE","OBJECT_TYPE":"PAYLOAD","PERIAPSIS":"546.192","OBJECT_NAME":"STARLINK-2702","APOAPSIS":"548.404","MEAN_ELEMENT_THEORY":"SGP4"},{"SITE":"AFETR","EPHEMERIS_TYPE":"0","MEAN_MOTION_DDOT":"0.0000000000000","REV_AT_EPOCH":"5030","ECCENTRICITY":"0.00015430","RA_OF_ASC_NODE":"144.6155","LAUNCH_DATE":"2021-05-09","REF_FRAME":"TEME","DECAY_DATE":null,"SEMIMAJOR_AXIS":"6925.419","MEAN_MOTION_DOT":"0.00001397","PERIOD":"95.594","OBJECT_TYPE":"PAYLOAD","CENTER_NAME":"EARTH","RCS_SIZE":"LARGE","OBJECT_NAME":"STARLINK-2644","PERIAPSIS":"546.216","APOAPSIS":"548.353","MEAN_ELEMENT_THEORY":"SGP4","EPOCH":"2022-04-04T10:59:13.831872","OBJECT_ID":"2021-040Q","BSTAR":"0.00011274000000","MEAN_ANOMALY":"293.4867","INCLINATION":"53.0537","CLASSIFICATION_TYPE":"U","ELEMENT_SET_NO":"999","GP_ID":"200425614","TLE_LINE1":"1 48442U 21040Q   22094.45779898  .00001397  00000-0  11274-3 0  9991","COUNTRY_CODE":"US","TLE_LINE2":"2 48442  53.0537 144.6155 0001543  66.6284 293.4867 15.06376876 50304","FILE":"3387897","NORAD_CAT_ID":"48442","ARG_OF_PERICENTER":"66.6284","MEAN_MOTION":"15.06376876","TIME_SYSTEM":"UTC"},{"LAUNCH_DATE":"2021-05-09","RA_OF_ASC_NODE":"142.8502","ECCENTRICITY":"0.00015730","REV_AT_EPOCH":"5164","MEAN_MOTION_DDOT":"0.0000000000000","SITE":"AFETR","EPHEMERIS_TYPE":"0","PERIOD":"95.593","MEAN_MOTION_DOT":"0.00001389","DECAY_DATE":null,"SEMIMAJOR_AXIS":"6925.366","REF_FRAME":"TEME","PERIAPSIS":"546.142","OBJECT_NAME":"STARLINK-2663","RCS_SIZE":"LARGE","CENTER_NAME":"EARTH","OBJECT_TYPE":"PAYLOAD","MEAN_ELEMENT_THEORY":"SGP4","APOAPSIS":"548.320","CLASSIFICATION_TYPE":"U","ELEMENT_SET_NO":"999","MEAN_ANOMALY":"297.7731","INCLINATION":"53.0551","BSTAR":"0.00011216000000","OBJECT_ID":"2021-040R","EPOCH":"2022-04-04T20:27:08.248320","TLE_LINE2":"2 48443  53.0551 142.8502 0001573  62.3417 297.7731 15.06394323 51643","GP_ID":"200436593","TLE_LINE1":"1 48443U 21040R   22094.85217880  .00001389  00000-0  11216-3 0  9991","COUNTRY_CODE":"US","ARG_OF_PERICENTER":"62.3417","NORAD_CAT_ID":"48443","FILE":"3388319","TIME_SYSTEM":"UTC","MEAN_MOTION":"15.06394323"},{"MEAN_ELEMENT_THEORY":"SGP4","APOAPSIS":"548.340","PERIAPSIS":"546.185","OBJECT_NAME":"STARLINK-2645","CENTER_NAME":"EARTH","RCS_SIZE":"LARGE","OBJECT_TYPE":"PAYLOAD","MEAN_MOTION_DOT":"0.00001739","PERIOD":"95.593","DECAY_DATE":null,"SEMIMAJOR_AXIS":"6925.398","REF_FRAME":"TEME","LAUNCH_DATE":"2021-05-09","REV_AT_EPOCH":"5164","ECCENTRICITY":"0.00015560","RA_OF_ASC_NODE":"142.8747","MEAN_MOTION_DDOT":"0.0000000000000","EPHEMERIS_TYPE":"0","SITE":"AFETR","TIME_SYSTEM":"UTC","MEAN_MOTION":"15.06384008","ARG_OF_PERICENTER":"61.6034","NORAD_CAT_ID":"48444","FILE":"3388320","GP_ID":"200436601","TLE_LINE1":"1 48444U 21040S   22094.84849855  .00001739  00000-0  13570-3 0  9998","COUNTRY_CODE":"US","TLE_LINE2":"2 48444  53.0557 142.8747 0001556  61.6034 298.5112 15.06384008 51640","ELEMENT_SET_NO":"999","CLASSIFICATION_TYPE":"U","INCLINATION":"53.0557","MEAN_ANOMALY":"298.5112","BSTAR":"0.00013570000000","EPOCH":"2022-04-04T20:21:50.274720","OBJECT_ID":"2021-040S"},{"REF_FRAME":"TEME","PERIOD":"95.592","MEAN_MOTION_DOT":"0.00022356","SEMIMAJOR_AXIS":"6925.328","DECAY_DATE":null,"MEAN_MOTION_DDOT":"0.0000000000000","SITE":"AFETR","EPHEMERIS_TYPE":"0","LAUNCH_DATE":"2021-05-09","RA_OF_ASC_NODE":"144.6816","ECCENTRICITY":"0.00018140","REV_AT_EPOCH":"5030","APOAPSIS":"548.449","MEAN_ELEMENT_THEORY":"SGP4","RCS_SIZE":"LARGE","CENTER_NAME":"EARTH","OBJECT_TYPE":"PAYLOAD","PERIAPSIS":"545.937","OBJECT_NAME":"STARLINK-2634","TLE_LINE2":"2 48445  53.0524 144.6816 0001814  43.4158 316.6974 15.06406734 50305","COUNTRY_CODE":"US","TLE_LINE1":"1 48445U 21040T   22094.44673345  .00022356  00000-0  15147-2 0  9993","GP_ID":"200425378","BSTAR":"0.00151470000000","OBJECT_ID":"2021-040T","EPOCH":"2022-04-04T10:43:17.770080","CLASSIFICATION_TYPE":"U","ELEMENT_SET_NO":"999","INCLINATION":"53.0524","MEAN_ANOMALY":"316.6974","MEAN_MOTION":"15.06406734","TIME_SYSTEM":"UTC","NORAD_CAT_ID":"48445","FILE":"3387897","ARG_OF_PERICENTER":"43.4158"}];
